COSMOS 2575             
1 58929U 24026A   26068.78497853  .00040851  00000+0  27112-3 0  9993
2 58929  96.6330 317.2894 0001531  67.5645 292.5784 15.75382154119985
STARLINK-11710 [DTC]    
1 64244U 25119M   26068.63432745  .00196009  00000+0  14961-2 0  9991
2 64244  43.0006 209.6571 0001719 288.6088  71.4593 15.70827050 45231
