[{"OBJECT_NAME":"COSMOS 2575","OBJECT_ID":"2024-026A","EPOCH":"2026-03-09T18:50:22.144992","MEAN_MOTION":15.75382155,"ECCENTRICITY":0.0001531,"INCLINATION":96.633,"RA_OF_ASC_NODE":317.2894,"ARG_OF_PERICENTER":67.5645,"MEAN_ANOMALY":292.5784,"EPHEMERIS_TYPE":0,"CLASSIFICATION_TYPE":"U","NORAD_CAT_ID":58929,"ELEMENT_SET_NO":999,"REV_AT_EPOCH":11998,"BSTAR":0.00027111555,"MEAN_MOTION_DOT":0.00040851,"MEAN_MOTION_DDOT":0},{"OBJECT_NAME":"STARLINK-11710 [DTC]","OBJECT_ID":"2025-119M","EPOCH":"2026-03-09T15:13:25.891680","MEAN_MOTION":15.7082705,"ECCENTRICITY":0.0001719,"INCLINATION":43.0006,"RA_OF_ASC_NODE":209.6571,"ARG_OF_PERICENTER":288.6088,"MEAN_ANOMALY":71.4593,"EPHEMERIS_TYPE":0,"CLASSIFICATION_TYPE":"U","NORAD_CAT_ID":64244,"ELEMENT_SET_NO":999,"REV_AT_EPOCH":4523,"BSTAR":0.0014961,"MEAN_MOTION_DOT":0.00196009,"MEAN_MOTION_DDOT":0}]
